<?xml version="1.0" encoding="UTF-8"?>
<ndm xmlns:xsi="http://www.w3.org/2001/XMLSchema-instance" xsi:noNamespaceSchemaLocation="https://sanaregistry.org/r/ndmxml_unqualified/ndmxml-2.0.0-master-2.0.xsd">
<omm id="CCSDS_OMM_VERS" version="2.0">
<header><CREATION_DATE/><ORIGINATOR/></header><body><segment><metadata><OBJECT_NAME>KUIPER-00027</OBJECT_NAME><OBJECT_ID>2025-088S</OBJECT_ID><CENTER_NAME>EARTH</CENTER_NAME><REF_FRAME>TEME</REF_FRAME><TIME_SYSTEM>UTC</TIME_SYSTEM><MEAN_ELEMENT_THEORY>SGP4</MEAN_ELEMENT_THEORY></metadata><data><meanElements><EPOCH>2026-01-13T01:59:57.750720</EPOCH><MEAN_MOTION>14.79959107</MEAN_MOTION><ECCENTRICITY>.00039179</ECCENTRICITY><INCLINATION>51.9030</INCLINATION><RA_OF_ASC_NODE>341.4701</RA_OF_ASC_NODE><ARG_OF_PERICENTER>356.8867</ARG_OF_PERICENTER><MEAN_ANOMALY>3.2070</MEAN_ANOMALY></meanElements><tleParameters><EPHEMERIS_TYPE>0</EPHEMERIS_TYPE><CLASSIFICATION_TYPE>U</CLASSIFICATION_TYPE><NORAD_CAT_ID>63740</NORAD_CAT_ID><ELEMENT_SET_NO>999</ELEMENT_SET_NO><REV_AT_EPOCH>3938</REV_AT_EPOCH><BSTAR>.44393945E-3</BSTAR><MEAN_MOTION_DOT>.3166E-4</MEAN_MOTION_DOT><MEAN_MOTION_DDOT>0</MEAN_MOTION_DDOT></tleParameters></data></segment></body></omm>
<omm id="CCSDS_OMM_VERS" version="2.0">
<header><CREATION_DATE/><ORIGINATOR/></header><body><segment><metadata><OBJECT_NAME>KUIPER-00028</OBJECT_NAME><OBJECT_ID>2025-088T</OBJECT_ID><CENTER_NAME>EARTH</CENTER_NAME><REF_FRAME>TEME</REF_FRAME><TIME_SYSTEM>UTC</TIME_SYSTEM><MEAN_ELEMENT_THEORY>SGP4</MEAN_ELEMENT_THEORY></metadata><data><meanElements><EPOCH>2026-01-13T07:18:20.518560</EPOCH><MEAN_MOTION>14.79887239</MEAN_MOTION><ECCENTRICITY>.00043815</ECCENTRICITY><INCLINATION>51.9015</INCLINATION><RA_OF_ASC_NODE>338.4784</RA_OF_ASC_NODE><ARG_OF_PERICENTER>4.7178</ARG_OF_PERICENTER><MEAN_ANOMALY>355.3825</MEAN_ANOMALY></meanElements><tleParameters><EPHEMERIS_TYPE>0</EPHEMERIS_TYPE><CLASSIFICATION_TYPE>U</CLASSIFICATION_TYPE><NORAD_CAT_ID>63741</NORAD_CAT_ID><ELEMENT_SET_NO>999</ELEMENT_SET_NO><REV_AT_EPOCH>3985</REV_AT_EPOCH><BSTAR>.30868684E-3</BSTAR><MEAN_MOTION_DOT>.213E-4</MEAN_MOTION_DOT><MEAN_MOTION_DDOT>0</MEAN_MOTION_DDOT></tleParameters></data></segment></body></omm>
<omm id="CCSDS_OMM_VERS" version="2.0">
<header><CREATION_DATE/><ORIGINATOR/></header><body><segment><metadata><OBJECT_NAME>KUIPER-00029</OBJECT_NAME><OBJECT_ID>2025-088U</OBJECT_ID><CENTER_NAME>EARTH</CENTER_NAME><REF_FRAME>TEME</REF_FRAME><TIME_SYSTEM>UTC</TIME_SYSTEM><MEAN_ELEMENT_THEORY>SGP4</MEAN_ELEMENT_THEORY></metadata><data><meanElements><EPOCH>2026-01-13T06:57:09.363744</EPOCH><MEAN_MOTION>14.79861429</MEAN_MOTION><ECCENTRICITY>.00000699</ECCENTRICITY><INCLINATION>51.9038</INCLINATION><RA_OF_ASC_NODE>336.5977</RA_OF_ASC_NODE><ARG_OF_PERICENTER>216.8130</ARG_OF_PERICENTER><MEAN_ANOMALY>143.2828</MEAN_ANOMALY></meanElements><tleParameters><EPHEMERIS_TYPE>0</EPHEMERIS_TYPE><CLASSIFICATION_TYPE>U</CLASSIFICATION_TYPE><NORAD_CAT_ID>63742</NORAD_CAT_ID><ELEMENT_SET_NO>999</ELEMENT_SET_NO><REV_AT_EPOCH>3940</REV_AT_EPOCH><BSTAR>.16319622E-3</BSTAR><MEAN_MOTION_DOT>.1021E-4</MEAN_MOTION_DOT><MEAN_MOTION_DDOT>0</MEAN_MOTION_DDOT></tleParameters></data></segment></body></omm>
<omm id="CCSDS_OMM_VERS" version="2.0">
<header><CREATION_DATE/><ORIGINATOR/></header><body><segment><metadata><OBJECT_NAME>KUIPER-00030</OBJECT_NAME><OBJECT_ID>2025-088V</OBJECT_ID><CENTER_NAME>EARTH</CENTER_NAME><REF_FRAME>TEME</REF_FRAME><TIME_SYSTEM>UTC</TIME_SYSTEM><MEAN_ELEMENT_THEORY>SGP4</MEAN_ELEMENT_THEORY></metadata><data><meanElements><EPOCH>2026-01-13T04:51:16.979904</EPOCH><MEAN_MOTION>14.79939463</MEAN_MOTION><ECCENTRICITY>.00127391</ECCENTRICITY><INCLINATION>51.9028</INCLINATION><RA_OF_ASC_NODE>355.9079</RA_OF_ASC_NODE><ARG_OF_PERICENTER>247.1278</ARG_OF_PERICENTER><MEAN_ANOMALY>112.8340</MEAN_ANOMALY></meanElements><tleParameters><EPHEMERIS_TYPE>0</EPHEMERIS_TYPE><CLASSIFICATION_TYPE>U</CLASSIFICATION_TYPE><NORAD_CAT_ID>63743</NORAD_CAT_ID><ELEMENT_SET_NO>999</ELEMENT_SET_NO><REV_AT_EPOCH>3941</REV_AT_EPOCH><BSTAR>.14942911E-2</BSTAR><MEAN_MOTION_DOT>.11203E-3</MEAN_MOTION_DOT><MEAN_MOTION_DDOT>0</MEAN_MOTION_DDOT></tleParameters></data></segment></body></omm>
<omm id="CCSDS_OMM_VERS" version="2.0">
<header><CREATION_DATE/><ORIGINATOR/></header><body><segment><metadata><OBJECT_NAME>KUIPER-00031</OBJECT_NAME><OBJECT_ID>2025-088W</OBJECT_ID><CENTER_NAME>EARTH</CENTER_NAME><REF_FRAME>TEME</REF_FRAME><TIME_SYSTEM>UTC</TIME_SYSTEM><MEAN_ELEMENT_THEORY>SGP4</MEAN_ELEMENT_THEORY></metadata><data><meanElements><EPOCH>2026-01-13T05:11:11.958432</EPOCH><MEAN_MOTION>14.80052655</MEAN_MOTION><ECCENTRICITY>.00027367</ECCENTRICITY><INCLINATION>51.9015</INCLINATION><RA_OF_ASC_NODE>341.9080</RA_OF_ASC_NODE><ARG_OF_PERICENTER>315.2631</ARG_OF_PERICENTER><MEAN_ANOMALY>44.8111</MEAN_ANOMALY></meanElements><tleParameters><EPHEMERIS_TYPE>0</EPHEMERIS_TYPE><CLASSIFICATION_TYPE>U</CLASSIFICATION_TYPE><NORAD_CAT_ID>63744</NORAD_CAT_ID><ELEMENT_SET_NO>999</ELEMENT_SET_NO><REV_AT_EPOCH>3932</REV_AT_EPOCH><BSTAR>.38600495E-3</BSTAR><MEAN_MOTION_DOT>.273E-4</MEAN_MOTION_DOT><MEAN_MOTION_DDOT>0</MEAN_MOTION_DDOT></tleParameters></data></segment></body></omm>
<omm id="CCSDS_OMM_VERS" version="2.0">
<header><CREATION_DATE/><ORIGINATOR/></header><body><segment><metadata><OBJECT_NAME>KUIPER-00032</OBJECT_NAME><OBJECT_ID>2025-088X</OBJECT_ID><CENTER_NAME>EARTH</CENTER_NAME><REF_FRAME>TEME</REF_FRAME><TIME_SYSTEM>UTC</TIME_SYSTEM><MEAN_ELEMENT_THEORY>SGP4</MEAN_ELEMENT_THEORY></metadata><data><meanElements><EPOCH>2026-01-13T03:58:35.331744</EPOCH><MEAN_MOTION>15.34718898</MEAN_MOTION><ECCENTRICITY>.00026002</ECCENTRICITY><INCLINATION>51.8723</INCLINATION><RA_OF_ASC_NODE>292.1230</RA_OF_ASC_NODE><ARG_OF_PERICENTER>285.8512</ARG_OF_PERICENTER><MEAN_ANOMALY>74.2187</MEAN_ANOMALY></meanElements><tleParameters><EPHEMERIS_TYPE>0</EPHEMERIS_TYPE><CLASSIFICATION_TYPE>U</CLASSIFICATION_TYPE><NORAD_CAT_ID>63745</NORAD_CAT_ID><ELEMENT_SET_NO>999</ELEMENT_SET_NO><REV_AT_EPOCH>4101</REV_AT_EPOCH><BSTAR>.33685188E-3</BSTAR><MEAN_MOTION_DOT>.11146E-3</MEAN_MOTION_DOT><MEAN_MOTION_DDOT>0</MEAN_MOTION_DDOT></tleParameters></data></segment></body></omm>
<omm id="CCSDS_OMM_VERS" version="2.0">
<header><CREATION_DATE/><ORIGINATOR/></header><body><segment><metadata><OBJECT_NAME>KUIPER-00033</OBJECT_NAME><OBJECT_ID>2025-088Y</OBJECT_ID><CENTER_NAME>EARTH</CENTER_NAME><REF_FRAME>TEME</REF_FRAME><TIME_SYSTEM>UTC</TIME_SYSTEM><MEAN_ELEMENT_THEORY>SGP4</MEAN_ELEMENT_THEORY></metadata><data><meanElements><EPOCH>2026-01-13T06:02:41.028864</EPOCH><MEAN_MOTION>14.79918589</MEAN_MOTION><ECCENTRICITY>.00039696</ECCENTRICITY><INCLINATION>51.9019</INCLINATION><RA_OF_ASC_NODE>11.7441</RA_OF_ASC_NODE><ARG_OF_PERICENTER>21.7093</ARG_OF_PERICENTER><MEAN_ANOMALY>338.4037</MEAN_ANOMALY></meanElements><tleParameters><EPHEMERIS_TYPE>0</EPHEMERIS_TYPE><CLASSIFICATION_TYPE>U</CLASSIFICATION_TYPE><NORAD_CAT_ID>63746</NORAD_CAT_ID><ELEMENT_SET_NO>999</ELEMENT_SET_NO><REV_AT_EPOCH>3939</REV_AT_EPOCH><BSTAR>-.12300412E-3</BSTAR><MEAN_MOTION_DOT>-.1159E-4</MEAN_MOTION_DOT><MEAN_MOTION_DDOT>0</MEAN_MOTION_DDOT></tleParameters></data></segment></body></omm>
<omm id="CCSDS_OMM_VERS" version="2.0">
<header><CREATION_DATE/><ORIGINATOR/></header><body><segment><metadata><OBJECT_NAME>KUIPER-00034</OBJECT_NAME><OBJECT_ID>2025-088Z</OBJECT_ID><CENTER_NAME>EARTH</CENTER_NAME><REF_FRAME>TEME</REF_FRAME><TIME_SYSTEM>UTC</TIME_SYSTEM><MEAN_ELEMENT_THEORY>SGP4</MEAN_ELEMENT_THEORY></metadata><data><meanElements><EPOCH>2026-01-13T07:00:59.008896</EPOCH><MEAN_MOTION>14.79931583</MEAN_MOTION><ECCENTRICITY>.00014359</ECCENTRICITY><INCLINATION>51.9037</INCLINATION><RA_OF_ASC_NODE>334.0837</RA_OF_ASC_NODE><ARG_OF_PERICENTER>39.0687</ARG_OF_PERICENTER><MEAN_ANOMALY>321.0379</MEAN_ANOMALY></meanElements><tleParameters><EPHEMERIS_TYPE>0</EPHEMERIS_TYPE><CLASSIFICATION_TYPE>U</CLASSIFICATION_TYPE><NORAD_CAT_ID>63747</NORAD_CAT_ID><ELEMENT_SET_NO>999</ELEMENT_SET_NO><REV_AT_EPOCH>3960</REV_AT_EPOCH><BSTAR>.28773361E-3</BSTAR><MEAN_MOTION_DOT>.1973E-4</MEAN_MOTION_DOT><MEAN_MOTION_DDOT>0</MEAN_MOTION_DDOT></tleParameters></data></segment></body></omm>

</ndm>
