KUIPER-00027            
1 63740U 25088S   26013.08330730  .00003166  00000+0  44394-3 0  9991
2 63740  51.9030 341.4701 0003917 356.8867   3.2070 14.79959107 39380
KUIPER-00028            
1 63741U 25088T   26013.30440415  .00002130  00000+0  30869-3 0  9991
2 63741  51.9015 338.4784 0004381   4.7178 355.3825 14.79887239 39858
KUIPER-00029            
1 63742U 25088U   26013.28969171  .00001021  00000+0  16320-3 0  9998
2 63742  51.9038 336.5977 0000069 216.8130 143.2828 14.79861429 39401
KUIPER-00030            
1 63743U 25088V   26013.20227986  .00011203  00000+0  14943-2 0  9993
2 63743  51.9028 355.9079 0012739 247.1278 112.8340 14.79939463 39412
KUIPER-00031            
1 63744U 25088W   26013.21611063  .00002730  00000+0  38600-3 0  9990
2 63744  51.9015 341.9080 0002736 315.2631  44.8111 14.80052655 39323
KUIPER-00032            
1 63745U 25088X   26013.16568671  .00011146  00000+0  33685-3 0  9990
2 63745  51.8723 292.1230 0002600 285.8512  74.2187 15.34718898 41010
KUIPER-00033            
1 63746U 25088Y   26013.25186376 -.00001159  00000+0 -12300-3 0  9995
2 63746  51.9019  11.7441 0003969  21.7093 338.4037 14.79918589 39393
KUIPER-00034            
1 63747U 25088Z   26013.29234964  .00001973  00000+0  28773-3 0  9990
2 63747  51.9037 334.0837 0001435  39.0687 321.0379 14.79931583 39601
